{
  "type": "FeatureCollection",
  "features": [
    {
      "type": "Feature",
      "properties": {
        "norad_id": 57400,
        "name": "TIANMU-1 08",
        "group": "weather",
        "lat": -69.87363794966868,
        "lon": -160.91232959478322,
        "alt_km": 493.90116043676426,
        "timestamp": "2025-12-15T22:44:28.563817+00:00",
        "meta_object_name": "TIANMU-1 08",
        "meta_object_id": "2023-101B",
        "meta_epoch": "2025-12-15T09:04:23.038752",
        "meta_mean_motion": 15.28096088,
        "meta_eccentricity": 0.00074595,
        "meta_inclination": 97.2869,
        "meta_ra_of_asc_node": 38.9673,
        "meta_arg_of_pericenter": 76.5418,
        "meta_mean_anomaly": 283.6653,
        "meta_ephemeris_type": 0,
        "meta_classification_type": "U",
        "meta_norad_cat_id": 57400,
        "meta_element_set_no": 999,
        "meta_rev_at_epoch": 13355,
        "meta_bstar": 0.00020436108,
        "meta_mean_motion_dot": 5.529e-05,
        "meta_mean_motion_ddot": 0,
        "tle_line1": "1 57400U 23101B   25349.37804443  .00005529  00000+0  20436-3 0  9997",
        "tle_line2": "2 57400  97.2869  38.9673 0007459  76.5418 283.6653 15.28096088133558"
      },
      "geometry": {
        "type": "Point",
        "coordinates": [
          -160.91232959478322,
          -69.87363794966868
        ]
      }
    },
    {
      "type": "Feature",
      "properties": {
        "norad_id": 57401,
        "name": "TIANMU-1 09",
        "group": "weather",
        "lat": -35.708827541604826,
        "lon": 44.310499309663356,
        "alt_km": 489.38354633542804,
        "timestamp": "2025-12-15T22:44:28.563840+00:00",
        "meta_object_name": "TIANMU-1 09",
        "meta_object_id": "2023-101C",
        "meta_epoch": "2025-12-15T07:10:59.151072",
        "meta_mean_motion": 15.2812625,
        "meta_eccentricity": 0.00067275,
        "meta_inclination": 97.2827,
        "meta_ra_of_asc_node": 38.4025,
        "meta_arg_of_pericenter": 76.8413,
        "meta_mean_anomaly": 283.3577,
        "meta_ephemeris_type": 0,
        "meta_classification_type": "U",
        "meta_norad_cat_id": 57401,
        "meta_element_set_no": 999,
        "meta_rev_at_epoch": 13354,
        "meta_bstar": 0.00022072396,
        "meta_mean_motion_dot": 5.983e-05,
        "meta_mean_motion_ddot": 0,
        "tle_line1": "1 57401U 23101C   25349.29929573  .00005983  00000+0  22072-3 0  9993",
        "tle_line2": "2 57401  97.2827  38.4025 0006727  76.8413 283.3577 15.28126250133540"
      },
      "geometry": {
        "type": "Point",
        "coordinates": [
          44.310499309663356,
          -35.708827541604826
        ]
      }
    },
    {
      "type": "Feature",
      "properties": {
        "norad_id": 57402,
        "name": "TIANMU-1 10",
        "group": "weather",
        "lat": 43.42590717296391,
        "lon": -133.15066903479195,
        "alt_km": 475.1620893971731,
        "timestamp": "2025-12-15T22:44:28.563856+00:00",
        "meta_object_name": "TIANMU-1 10",
        "meta_object_id": "2023-101D",
        "meta_epoch": "2025-12-15T09:34:34.053600",
        "meta_mean_motion": 15.28118611,
        "meta_eccentricity": 0.00084493,
        "meta_inclination": 97.2906,
        "meta_ra_of_asc_node": 39.3525,
        "meta_arg_of_pericenter": 75.7514,
        "meta_mean_anomaly": 284.4663,
        "meta_ephemeris_type": 0,
        "meta_classification_type": "U",
        "meta_norad_cat_id": 57402,
        "meta_element_set_no": 999,
        "meta_rev_at_epoch": 13355,
        "meta_bstar": 0.00020728242,
        "meta_mean_motion_dot": 5.615e-05,
        "meta_mean_motion_ddot": 0,
        "tle_line1": "1 57402U 23101D   25349.39900525  .00005615  00000+0  20728-3 0  9999",
        "tle_line2": "2 57402  97.2906  39.3525 0008449  75.7514 284.4663 15.28118611133558"
      },
      "geometry": {
        "type": "Point",
        "coordinates": [
          -133.15066903479195,
          43.42590717296391
        ]
      }
    },
    {
      "type": "Feature",
      "properties": {
        "norad_id": 57490,
        "name": "FENGYUN 3F",
        "group": "weather",
        "lat": -47.50257514143594,
        "lon": -131.44026324350477,
        "alt_km": 832.7503517697751,
        "timestamp": "2025-12-15T22:44:28.563873+00:00",
        "meta_object_name": "FENGYUN 3F",
        "meta_object_id": "2023-111A",
        "meta_epoch": "2025-12-15T08:08:25.089792",
        "meta_mean_motion": 14.19894246,
        "meta_eccentricity": 6.84e-05,
        "meta_inclination": 98.7081,
        "meta_ra_of_asc_node": 57.5906,
        "meta_arg_of_pericenter": 107.0859,
        "meta_mean_anomaly": 253.0392,
        "meta_ephemeris_type": 0,
        "meta_classification_type": "U",
        "meta_norad_cat_id": 57490,
        "meta_element_set_no": 999,
        "meta_rev_at_epoch": 12277,
        "meta_bstar": 5.6581737e-05,
        "meta_mean_motion_dot": 7.6e-07,
        "meta_mean_motion_ddot": 0,
        "tle_line1": "1 57490U 23111A   25349.33917928  .00000076  00000+0  56582-4 0  9990",
        "tle_line2": "2 57490  98.7081  57.5906 0000684 107.0859 253.0392 14.19894246122771"
      },
      "geometry": {
        "type": "Point",
        "coordinates": [
          -131.44026324350477,
          -47.50257514143594
        ]
      }
    },
    {
      "type": "Feature",
      "properties": {
        "norad_id": 58584,
        "name": "ARKTIKA-M 2",
        "group": "weather",
        "lat": 56.56435585811868,
        "lon": -135.55614368933726,
        "alt_km": 33690.40508728447,
        "timestamp": "2025-12-15T22:44:28.563893+00:00",
        "meta_object_name": "ARKTIKA-M 2",
        "meta_object_id": "2023-198A",
        "meta_epoch": "2025-12-15T07:41:54.278304",
        "meta_mean_motion": 2.00603484,
        "meta_eccentricity": 0.6865091,
        "meta_inclination": 63.2249,
        "meta_ra_of_asc_node": 174.6089,
        "meta_arg_of_pericenter": 268.096,
        "meta_mean_anomaly": 18.8351,
        "meta_ephemeris_type": 0,
        "meta_classification_type": "U",
        "meta_norad_cat_id": 58584,
        "meta_element_set_no": 999,
        "meta_rev_at_epoch": 1463,
        "meta_bstar": 0,
        "meta_mean_motion_dot": 2.02e-06,
        "meta_mean_motion_ddot": 0,
        "tle_line1": "1 58584U 23198A   25349.32076711  .00000202  00000+0  00000+0 0  9995",
        "tle_line2": "2 58584  63.2249 174.6089 6865091 268.0960  18.8351  2.00603484 14636"
      },
      "geometry": {
        "type": "Point",
        "coordinates": [
          -135.55614368933726,
          56.56435585811868
        ]
      }
    },
    {
      "type": "Feature",
      "properties": {
        "norad_id": 58645,
        "name": "TIANMU-1 11",
        "group": "weather",
        "lat": -81.1519973348002,
        "lon": 65.65931398846338,
        "alt_km": 494.32137096152474,
        "timestamp": "2025-12-15T22:44:28.563912+00:00",
        "meta_object_name": "TIANMU-1 11",
        "meta_object_id": "2023-205A",
        "meta_epoch": "2025-12-15T07:21:43.142112",
        "meta_mean_motion": 15.24633963,
        "meta_eccentricity": 0.00077461,
        "meta_inclination": 97.3608,
        "meta_ra_of_asc_node": 8.8852,
        "meta_arg_of_pericenter": 299.7877,
        "meta_mean_anomaly": 60.259,
        "meta_ephemeris_type": 0,
        "meta_classification_type": "U",
        "meta_norad_cat_id": 58645,
        "meta_element_set_no": 999,
        "meta_rev_at_epoch": 10948,
        "meta_bstar": 0.00018669724,
        "meta_mean_motion_dot": 4.54e-05,
        "meta_mean_motion_ddot": 0,
        "tle_line1": "1 58645U 23205A   25349.30674933  .00004540  00000+0  18670-3 0  9995",
        "tle_line2": "2 58645  97.3608   8.8852 0007746 299.7877  60.2590 15.24633963109483"
      },
      "geometry": {
        "type": "Point",
        "coordinates": [
          65.65931398846338,
          -81.1519973348002
        ]
      }
    },
    {
      "type": "Feature",
      "properties": {
        "norad_id": 58646,
        "name": "TIANMU-1 12",
        "group": "weather",
        "lat": 53.49088331598,
        "lon": -160.62465093750677,
        "alt_km": 490.7300777921291,
        "timestamp": "2025-12-15T22:44:28.563929+00:00",
        "meta_object_name": "TIANMU-1 12",
        "meta_object_id": "2023-205B",
        "meta_epoch": "2025-12-15T08:00:48.432960",
        "meta_mean_motion": 15.24518163,
        "meta_eccentricity": 0.00057912,
        "meta_inclination": 97.3595,
        "meta_ra_of_asc_node": 8.7165,
        "meta_arg_of_pericenter": 279.5213,
        "meta_mean_anomaly": 80.537,
        "meta_ephemeris_type": 0,
        "meta_classification_type": "U",
        "meta_norad_cat_id": 58646,
        "meta_element_set_no": 999,
        "meta_rev_at_epoch": 10947,
        "meta_bstar": 0.00021370916,
        "meta_mean_motion_dot": 5.187e-05,
        "meta_mean_motion_ddot": 0,
        "tle_line1": "1 58646U 23205B   25349.33389390  .00005187  00000+0  21371-3 0  9999",
        "tle_line2": "2 58646  97.3595   8.7165 0005791 279.5213  80.5370 15.24518163109477"
      },
      "geometry": {
        "type": "Point",
        "coordinates": [
          -160.62465093750677,
          53.49088331598
        ]
      }
    }
  ]
}